STARLINK-4625           
1 53683U 22105AM  26068.66558993 -.00000101  00000+0 -32881-5 0  9998
2 53683  97.6012 310.1810 0004658  56.8765 303.2906 15.01261736193239
HAWK-8B                 
1 59445U 24066D   26068.47430810  .00002353  00000+0  21133-3 0  9999
2 59445  45.6192  73.7012 0004280 258.0487 101.9914 14.98769819104860
